Location Name,Address,Phone Number,Google Maps URL,Lat,Long,BusinessType
PCC Aurora,"7504 Aurora Ave N, Seattle, WA 98103",12065253586,https://g.page/pccgreenlakeaurora?share,47.683521,-122.34333,Grocery Store
PCC Ballard,"1451 NW 46th St, Seattle, WA 98107",12065380130,https://g.page/pccballard?share,47.66184,-122.37491,Grocery Store
PCC Bothell,"22621 Bothell Everett Hwy, Bothell, WA 98021",14254920122,https://g.page/pccbothell?share,47.79276,-122.21439,Grocery Store
PCC Burien,"15840 1st Ave S, Burien, WA 98148",12067086908,https://g.page/PCCBurien?share,47.46107,-122.33179,Grocery Store
PCC Columbia City,"3610 S Edmunds St, Seattle, WA 98118",12064666182,https://g.page/PCCColumbiaCity?share,47.55884,-122.28689,Grocery Store
PCC Edmonds,"9803 Edmonds Way, Edmonds, WA 98020",14252759036,https://g.page/PCCEdmonds?share,47.7915995427906,-122.365304468063,Grocery Store
PCC Fremont,"600 N 34th St, Seattle, WA 98103",12066326811,https://g.page/PCCFremont?share,47.6499941548751,-122.350259825377,Grocery Store
PCC Greenlake Aurora,"7504 Aurora Ave N, Seattle, WA 98103",12065253586,https://g.page/pccgreenlakeaurora?share,47.6838079348758,-122.343631761609,Grocery Store
PCC Greenlake Village,"450 NE 71st St, Seattle, WA 98115",12067295075,https://g.page/PCCGreenLakeVillage?share,47.6803897296474,-122.322471129074,Grocery Store
PCC Issaquah,"1810 12th Ave NW, Issaquah, WA 98027",14253691222,https://g.page/PCCIssaquah?share,47.5517682493276,-122.056130703756,Grocery Store
PCC Redmond,"11435 Avondale Rd NE, Redmond, WA 98052",14252851400,https://g.page/PCCRedmond?share,47.7017720915016,-122.092847213731,Grocery Store
PCC View Ridge,"6514 40th Ave NE, Seattle, WA 98115",12065267661,https://g.page/PCCViewRidge?share,47.6763296295789,-122.284109595992,Grocery Store
PCC West Seattle,"2749 California Ave SW, Seattle, WA 98116",12064857185,https://g.page/PCCWestSeattle?share,47.5778851301248,-122.386671334625,Grocery Store
Whole Foods Broadway,"1001 Broadway, Seattle, WA 98122",12068023720,https://goo.gl/maps/uhg1VuG67Joi4dcFA,47.6115186738974,-122.320801330926,Grocery Store
Whole Foods Interbay,"2001 15th Ave W, Seattle, WA 98119",12063525440,https://goo.gl/maps/Qdaiojy1VkXcTPDz9,47.6373364896985,-122.376537390445,Grocery Store
Whole Foods Lynwood,"2800 Sw, 196th St SW Ste 100, Lynnwood, WA 98036",14257751320,https://goo.gl/maps/7aoa5MdQwfooRoww9,47.8200608754079,-122.271847163454,Grocery Store
Whole Foods Redmond,"17991 Redmond Way, Redmond, WA 98052",14258812600,https://goo.gl/maps/2sCHax5k8AdVnYkq5,47.6663338614049,-122.100994644417,Grocery Store
Whole Foods Roosevelt Square,"1026 NE 64th St, Seattle, WA 98115",12069851500,https://goo.gl/maps/Rg1vbP1UfXjazQWY9,47.6755140246432,-122.315862838321,Grocery Store
Whole Foods West Seattle,"4755 Fauntleroy Way SW Ste 190, Seattle, WA 98116",12063385060,https://goo.gl/maps/Ft2xdH6LUfv2ki6p8,47.5602276189505,-122.381521275105,Grocery Store
Whole Foods Westlake,"2210 Westlake Ave, Seattle, WA 98121",12066219700,https://goo.gl/maps/m3wdoQPhtj3bKdh8A,47.6184560498769,-122.336947864008,Grocery Store
Whole Foods- Madison/Bway,"1001 Broadway, Seattle, WA 98122",12068023720,https://goo.gl/maps/wJXzAJsLC12jdvx76,47.611540372553,-122.320415092844,Grocery Store
Haggen Fairhaven,"1401 12th St, Bellingham, WA 98225",13607334370,https://goo.gl/maps/xvGWDwYdL2UQEpJX8,48.7192047382727,-122.500994576922,Grocery Store
Haggen Sehome,"210 36th St, Bellingham, WA 98225",13606761996,https://goo.gl/maps/wmGpZBKsbe4PWg7W9,48.732731384816,-122.471376903908,Grocery Store
Haggen Ferndale,"1815 Main St, Ferndale, WA 98248",13603809000,https://goo.gl/maps/jGnwkuH6rPcVnHVi9,48.8432081061758,-122.580335651781,Grocery Store
Haggen Meridian,"2814 Meridian St, Bellingham, WA 98225",13606713300,https://goo.gl/maps/wDYdUJerMM6qcMZE7,48.7679002378178,-122.484000892263,Grocery Store
Haggen Barkley,"2900 Woburn St, Bellingham, WA 98226",13606765300,https://goo.gl/maps/dhTYNKSkSpF3HXBx7,48.7693138906101,-122.443713436989,Grocery Store
Fred Meyer Lakeway,"800 Lakeway Drive, Bellingham, WA 98225",13606761102,https://goo.gl/maps/8TPmvhv1qzmQ1z7E7,48.7436181943057,-122.463643321839,Grocery Store
Fred Meyer Bakerview,"1225 W Bakerview Rd, Bellingham, WA 98226",13607882900,https://goo.gl/maps/Rpos9gL8N2RYQrNs6,48.7888063361707,-122.511349211304,Grocery Store
Elizabeth Station,"1400 W Holly St, Bellingham, WA 98225",13607338982,https://g.page/Elizabethstation?share,48.7577174757021,-122.490123030894,Grocery Store
Greene's Corner,"2208 James St, Bellingham, WA 98225",13603068137,https://g.page/GreenesCorner?share,48.7595405787055,-122.463995688565,Grocery Store
Cordata Co-op,"315 Westerly Rd, Bellingham, WA 98226",13607348158,https://g.page/community-food-co-op-cordata?share,48.7916602150726,-122.49124727377,Grocery Store
Downtown Co-op,"1220 N Forest St, Bellingham, WA 98225",13607348158,https://g.page/community-food-co-op-downtown?share,48.7474193182121,-122.47579871925,Grocery Store
Fiamma Burger,"1309 Railroad Ave, Bellingham WA 98225",13607337374,https://g.page/fiammaburger?share,48.7497725566447,-122.477416890414,Restaurant // Tap Room
Dark Tower Games,"1431 Railroad Ave, Bellingham, WA 98225",13605995127,https://g.page/DarkTowerGames?share,48.7511984870534,-122.474967811853,Restaurant // Tap Room
Cafe Rumba,"1140 N State Street, Bellingham, WA 98225",13607468280,https://goo.gl/maps/Ta1hSRzrMpyvJjYz5,48.7470515935903,-122.478752367126,Restaurant // Tap Room
Temple Bar,"306 W Champion St, Bellingham, WA 98225",13606768660,https://goo.gl/maps/zYCkJNMR83RgsV1B6,48.7521503062238,-122.479765895962,Grocery Store
Target Bellingham,"30 Bellis Fair Pkwy, Bellingham, WA 98226",13607340220,https://goo.gl/maps/eubXUEDuEDPzGL43A,48.7870996122019,-122.493341324797,Grocery Store
Rock Bay Cafe,"225 Spring St, Friday Harbor, WA 98250",13603785051,https://g.page/RockyBayCafe?share,48.5342943358139,-123.016830344201,Restaurant // Tap Room
Woolley Market,"829 Metcalf St, Sedro-Woolley, WA 98284",13608994058,https://goo.gl/maps/zyBFR3ceTcn4VzTG7,48.503651155914,-122.238483145695,Grocery Store
Samish Bay Cheese,"15115 Bow Hill Rd, Bow, WA 98232",13607666707,https://goo.gl/maps/ag8jX6RYQGVdWk7H6,48.5655293783339,-122.419816028502,Grocery Store
Railroad Pub and Pizza,"122 S Spruce St, Burlington, WA 98233",13609822133,https://g.page/railroadpizza?share,48.4751840203922,-122.330394170833,Restaurant // Tap Room
Island Market,"469 Market St, Eastsound, WA 98245",13603766000,https://goo.gl/maps/dwwuESfCi4YB2xPx8,48.6955199679719,-122.904471613155,Grocery Store
Haggen Mount Vernon,"2601 E Division St, Mt Vernon, WA 98274",13608486999,https://goo.gl/maps/fLqxjWSTx7H18VJn7,48.422042961171,-122.307561957341,Grocery Store
Haggen Burlington,"757 Haggen Dr, Burlington, WA 98233",13608141500,https://goo.gl/maps/HW42M5Y3yo4KtKeEA,48.4696120146249,-122.338352015011,Grocery Store
Haggen Oak Harbor,"31565 WA-20 #1, Oak Harbor, WA 98277",13606798058,https://goo.gl/maps/NipRfsDspJ8ahCwb8,48.2894359451508,-122.659247484331,Grocery Store
Skagit Valley Food Co Op,"202 S First St, Mount Vernon, WA 98273",13603369777,https://goo.gl/maps/7ERDBqoxueRvYv6o8,48.4211447822695,-122.336627103369,Grocery Store
Craft Wine and Beer,"22 Martin St, Reno, NV 89509",17756224333,https://goo.gl/maps/Wco8H5JJ2kMLcdd56,39.5153145853774,-119.807947192505,Grocery Store
Cascadia Liquor,"977 Langford Pkwy, Victoria, BC V9B 2N7, Canada",12505909511,https://goo.gl/maps/utGSfV1zEBYrf4tS9,48.44274109078,-123.515148436017,Grocery Store
Cascadia Liquor,"2244 Sooke Rd, Victoria, BC V9B 1X1, Canada",12504781303,https://goo.gl/maps/GNbpCXZncm5sjrXF8,48.4350694991083,-123.493440286176,Grocery Store
Cascadia Liquor,"130-23 Helmcken Rd, Victoria, BC V8Z 5G5, Canada",17782658668,https://goo.gl/maps/mtwuPq4k6iyAbNs59,48.4682478194054,-123.427470136449,Grocery Store
Cascadia Liquor,"3671 Uptown Blvd #101, Victoria, BC V8Z 0B9, Canada",17782656265,https://goo.gl/maps/ZvMHJXbpw5Bjek9t9,48.455699017248,-123.374790419258,Grocery Store
Cascadia Liquor,"2670 Fifth St, Victoria, BC V8T 5A8, Canada",12505901940,https://g.page/cascadia-quadra?share,48.4387906693728,-123.358304328505,Grocery Store
Legacy Liquor Store,"1633 Manitoba St, Vancouver, BC V5Y 0B8, Canada",16043317900,https://goo.gl/maps/Y9HFNXWp5kEasr797,49.2712160845736,-123.106118281153,Grocery Store
Whistler Liquor Store,"8200 Bear Paw Trail #105, Whistler, BC V8E 1M2, Canada",16049620121,https://g.page/WHISTLERLIQUORSTORE?share,50.1565230749826,-122.954273367086,Grocery Store
Town and Country- Bainbridge Island,"343 Winslow Way E., Bainbridge Island, WA 98110",12068423848,https://goo.gl/maps/tSHTiHfd6arkQgQf6,47.6245077700778,-122.517500449966,Grocery Store
Town and Country- Ballard,"1400 N.W. 56th St., Seattle, WA 98107",12067837922,https://goo.gl/maps/zjR7NEcCty7eLvxR6,47.6700269496468,-122.373818536472,Grocery Store
Town and Country- Bellevue,"4989 Lakemont Blvd. S.E., Bellevue, WA 98006",14256532261,https://goo.gl/maps/DxsKHwmc971yTJvC7,47.5582710648778,-122.114995750516,Grocery Store
Central Market- Shoreline,"15505 Westminster Way N., Shoreline WA 98133",12063639226,https://goo.gl/maps/5HvP829asnput6ed9,47.742931058539,-122.348972194689,Grocery Store
Central Market- Poulsbo,"20148 10th Ave. N.E., Poulsbo WA 98370",13607791881,https://goo.gl/maps/KuRSmS9XgAm8UhiX7,47.7463443214422,-122.636116090442,Grocery Store
Central Market- Mill Creek,"15605 Main St., Mill Creek WA 98012",14253573240,https://goo.gl/maps/9VV2Xhhm6uhwXPfo9,47.8565939770556,-122.219265302083,Grocery Store
Ballard Beer Co,"2050 NW Market St, Seattle, WA 98107",12067830179,https://goo.gl/maps/dTTbyDHsivLvXDUB8,47.6689513534,-122.384185670855,Restaurant // Tap Room
Beer Authority,"12720 Lake City Way NE, Seattle, WA 98125",12064179629,https://goo.gl/maps/6z1VefULyjrzyJKDA,47.7219705376093,-122.292816530923,Restaurant // Tap Room
The Beer Juntion,"4511 California Ave SW, Seattle, WA 98116",12069382337,https://goo.gl/maps/3iF7rHeXJdgej8mA8,47.5626622135675,-122.386341829078,Restaurant // Tap Room
Beer Star,"9801 16th Ave SW, Seattle, WA 98106",12064533088,https://goo.gl/maps/BEPnjNnq4xLgooqv8,47.5156242329695,-122.354796659764,Restaurant // Tap Room
Beveridge Place Pub,"6413 California Ave SW, Seattle, WA 98136",12069329906,https://goo.gl/maps/VLV8dNKpYKAtNmHt8,47.5455108254086,-122.38734942853,Restaurant // Tap Room
Bottleworks,"1710 N 45th St #3, Seattle, WA 98103",12066332437,https://g.page/BottleworksBier?share,47.6617444837317,-122.336408084897,Restaurant // Tap Room
Brewer's Row,"3205 N 26th St, Tacoma, WA 98407",12533271757,https://goo.gl/maps/uMXxB3r1rDV9PfRp6,47.2714383348609,-122.477175008195,Restaurant // Tap Room
Brewmaster's Taproom,"2000 Benson Rd S, Renton, WA 98055",14252646391,https://g.page/brewmasterstaproom?share,47.4623790816191,-122.202440156067,Restaurant // Tap Room
Brigid's Bottleshop,"188 Sunset Ave S, Edmonds, WA 98020",14255828218,https://g.page/brigidsbottleshop?share,47.8106949109941,-122.383910957358,Restaurant // Tap Room
Brouwers,"400 N 35th St, Seattle, WA 98103",12062672437,https://goo.gl/maps/dLW5CMfVJTYNoYun6,47.6517034071864,-122.353549456061,Restaurant // Tap Room
CaskCades,"106-A N Meridian, Puyallup, WA 98371",12532564210,https://g.page/CaskCades?share,47.1921393303941,-122.293318042581,Restaurant // Tap Room
CRFT BEERS,"1210 Auburn Way N Suite E, Auburn, WA 98002",12537375359,https://g.page/crftbeers?share,47.3190615313741,-122.220815426687,Restaurant // Tap Room
Chuck's Hop Shop CD,"2001 E Union St, Seattle, WA 98122",12065380743,https://goo.gl/maps/bd9dxxnQR2PncjtX7,47.6127871717923,-122.305625255515,Restaurant // Tap Room
Chuck's Hop Shop Greenwood,"656 NW 85th St, Seattle, WA 98117",12062976212,https://goo.gl/maps/VmBHSbbBui7M7Rq56,47.6910746483263,-122.365526867156,Restaurant // Tap Room
Coindexter's,"8556 Greenwood Ave N, Seattle, WA 98103",12067830477,https://g.page/Coindexters?share,47.6917321933009,-122.354709305786,Restaurant // Tap Room
Cone & Steinier,"532 19th Ave E, Seattle, WA 98112",12065821928,https://goo.gl/maps/nBTj2GHqM8Q38RKAA,47.6241063660774,-122.306957311336,Restaurant // Tap Room
Cone & Steinier,"135 S King St, Seattle, WA 98104",12064023682,https://goo.gl/maps/XVGt5id3DfsJ3iNB8,47.5984296636492,-122.331713394693,Restaurant // Tap Room
The Dray,"708 NW 65th St, Seattle, WA 98117",12064534527,https://goo.gl/maps/U4ABirB6TJrDq9VLA,47.6761412426401,-122.364830253663,Restaurant // Tap Room
Earl's on the Ave,"4333 University Way NE, Seattle, WA 98105",12065254493,https://goo.gl/maps/ypCFNVw2ep2v6LoV6,47.6608926179932,-122.312677396541,Restaurant // Tap Room
Duck Island,"7317 Aurora Ave N, Seattle, WA 98103",12067833360,https://goo.gl/maps/vUj6K69H9MCoXMRX9,47.6823042408532,-122.343838879349,Restaurant // Tap Room
Edison City Alehouse,"5602 S Lawrence St, Tacoma, WA 98409",12533013593,https://goo.gl/maps/YhkSAthY2sGVxgpZ8,47.2061260332874,-122.478348604499,Restaurant // Tap Room
Flatstick Pub,"609 Westlake Ave N, Seattle, WA 98109",12062584989,https://goo.gl/maps/LNACDHD4WZapiPUR9,47.6254019086277,-122.338272407637,Restaurant // Tap Room
Flatstick Pub,"240 2nd Ave S, Seattle, WA 98104",12066820608,https://goo.gl/maps/Aeb5dN6VBjP5W6U88,47.6003168059321,-122.330691265309,Restaurant // Tap Room
Flatstick Pub,"15 Lake St Suite 100, Kirkland, WA 98033",14252421618,https://goo.gl/maps/gHhq2GhhSB1T7GKX7,47.6760787584535,-122.206175877499,Restaurant // Tap Room
Full Throttle Bottles,"5909 Airport Way S, Seattle, WA 98108",12067632079,https://goo.gl/maps/fwaTbQG3xfiUK15t6,47.5499787971762,-122.317690997845,Restaurant // Tap Room
Giddy Up Burgers,"4600 Leary Way NW, Seattle, WA 98107",12067822798,https://goo.gl/maps/3mVWN2DZRq5Udrz49,47.6625295925778,-122.36682889839,Restaurant // Tap Room
Hop and Hound,"18116 101st Ave NE, Bothell, WA 98011",14254862337,https://goo.gl/maps/sKApFySyxa3MiWQx7,47.7600375628588,-122.204991609483,Restaurant // Tap Room
Hopvine Pub,"507 15th Ave E, Seattle, WA 98112",12063283120,https://g.page/hopvinepub?share,47.6234774790355,-122.312031496542,Restaurant // Tap Room
Imbibe Bottle House,"23330 Maple Valley Black Diamond Rd SE, Maple Valley, WA 98038",14254336972,https://g.page/imbibebeer?share,47.3919097184869,-122.044620798398,Restaurant // Tap Room
Jack's BBQ,"3924 Airport Way S, Seattle, WA 98108",12064674038,https://g.page/JacksBBQSoDo?share,47.5684030397378,-122.321784102091,Restaurant // Tap Room
Kiss Cafe,"2817 NW Market St, Seattle, WA 98107",12067895477,https://goo.gl/maps/pvAFyeE7VpwuyCCU7,47.6685588541731,-122.393199692294,Restaurant // Tap Room
Latona Pub,"6423 Latona Ave NE, Seattle, WA 98115",12065252238,https://g.page/pubseattle?share,47.6759256108908,-122.325461884348,Restaurant // Tap Room
Lincoln South Food Hall,"500 Bellevue Way NE Fl 2, Bellevue, WA 98004",14253626082,https://g.page/LincolnSFH?share,47.614749628182,-122.200258457912,Restaurant // Tap Room
Local Public Eatery,"404 Terry Ave N, Seattle, WA 98109",12062571888,https://goo.gl/maps/UEAafxtRU7QYk5yq5,47.6224274813592,-122.336267571405,Restaurant // Tap Room
JOEY- U Village,"2603 NE 46th St, Seattle, WA 98105",12065276188,https://goo.gl/maps/SqPdHoNS8pBGxfZH6,47.6616620464309,-122.299517794143,Restaurant // Tap Room
JOEY- Bellevue,"800 Bellevue Way NE Ste 118, Bellevue, WA 98004",14256371177,https://goo.gl/maps/JrfjpZznT4t3xsud7,47.6177232112144,-122.20097332298,Restaurant // Tap Room
JOEY- Southcenter,"758 Southcenter Mall, Tukwila, WA 98188",12068356397,https://goo.gl/maps/NgBcCd2roo2ajo5p6,47.4578697992048,-122.257304398396,Restaurant // Tap Room
Maize and Barley,"525 Main St, Edmonds, WA 98020",14258350868,https://g.page/MaizeBarley?share,47.8107659321126,-122.375908317427,Restaurant // Tap Room
Malt and Vine,"16851 Redmond Way, Redmond, WA 98052",14258816461,https://goo.gl/maps/PVhKdEjkdBNYZEFm6,47.6713890423459,-122.115078197842,Restaurant // Tap Room
Marlene's Market- Federal Way,"2565 S. Gateway Center Place, Federal Way, WA 98003",12538390933,https://goo.gl/maps/mRVKCRehiMAtzvYk6,47.3169816350961,-122.298425981208,Grocery Store
Marlene's Market- Tacoma,"2951 S. 38th Street, Tacoma, WA 98409",12534724080,https://goo.gl/maps/xQ1j5V3hK1yJfAwM7,47.2229086033057,-122.474991389156,Grocery Store
The Masonry,"20 Roy St, Seattle, WA 98109",12064534375,https://goo.gl/maps/WPq7pwDnvTpfiAcFA,47.6256930741317,-122.355089186747,Restaurant // Tap Room
Masonry Fremont,"730 N 34th St, Seattle, WA 98103",12065574907,https://goo.gl/maps/ZnX3QhkYS4rsAKBG7,47.649612421181,-122.348263384349,Restaurant // Tap Room
Miir,"3400 Stone Way N, Seattle, WA 98103",12065667207,https://g.page/miirflagship?share,47.6492967817559,-122.341806156062,Restaurant // Tap Room
Noble Fir,"5316 Ballard Ave NW, Seattle, WA 98107",12064207425,https://goo.gl/maps/PCGNBSEtGojkoSEq7,47.6668655287334,-122.383306611335,Restaurant // Tap Room
No Anchor,"2505 2nd Ave #105, Seattle, WA 98121",12064482610,https://g.page/noanchorbar?share,47.6155984317975,-122.348656242021,Restaurant // Tap Room
Olaf's,"6301 24th Ave NW, Seattle, WA 98107",12062976122,https://goo.gl/maps/xuvSzdE9WKxjnDN6A,47.6748039653924,-122.387088967705,Restaurant // Tap Room
Oly Taproom,"312 Columbia St NW, Olympia, WA 98501",13605150661,https://goo.gl/maps/GFZDAQfscBpAaAYb7,47.0470664976114,-122.902430900256,Restaurant // Tap Room
Otter Bar,"2379 Eastlake Ave E, Seattle, WA 98102",12069069401,https://goo.gl/maps/dWpeRn67h9VhLHp69,47.6420202387971,-122.325668288596,Restaurant // Tap Room
Ounces Taproom & Beer Garden,"3809 Delridge Way SW, Seattle, WA 98106",12064201837,https://g.page/ouncesseattle?share,47.5696673725596,-122.362150059762,Restaurant // Tap Room
Ozzie's,"105 W Mercer St, Seattle, WA 98119",12062844618,https://goo.gl/maps/Jim3uKHCom6Hkpz58,47.6243828280768,-122.357657398391,Restaurant // Tap Room
Peaks and Pints,"3816 N 26th St b, Tacoma, WA 98407",12533285621,https://g.page/peaksandpintstacoma?share,47.271029934863,-122.487700475113,Restaurant // Tap Room
Pine Box,"1600 Melrose Ave, Seattle, WA 98122",12065880375,https://goo.gl/maps/oKTtzfnBGEPmjeEaA,47.6156312287342,-122.326957013734,Restaurant // Tap Room
Pono Ranch,"4502 Shilshole Ave NW, Seattle, WA 98107",12062582162,https://goo.gl/maps/iZNiF4cymzyWLFHGA,47.6620291714329,-122.376606428527,Restaurant // Tap Room
Pint Defiance,"2049 Mildred St W, Tacoma, WA 98466",12533024240,https://goo.gl/maps/yQVWb5tvBQ47Rfjz7,47.2414186899142,-122.525652696004,Restaurant // Tap Room
The Pumphouse,"11802 NE 8th St, Bellevue, WA 98005",14254554110,https://goo.gl/maps/H61ZFgcVSVSUQxGR6,47.6179114553927,-122.182237510035,Restaurant // Tap Room
Pourhouse,"2231 Washington St, Port Townsend, WA 98368",13603795586,https://goo.gl/maps/3tGwJDFcNjV3XN2b9,48.1092465273695,-122.771051342007,Restaurant // Tap Room
Quinn's Pub,"1001 E Pike St, Seattle, WA 98122",12063257711,https://goo.gl/maps/15kevscYbHBo2qBC6,47.614096899795,-122.318952280651,Restaurant // Tap Room
Rays,"6049 Seaview Ave NW, Seattle, WA 98107",12067893770,https://g.page/RaysBoathouse?share,47.6734674467117,-122.406881254212,Restaurant // Tap Room
Rhein Haus,"912 12th Ave, Seattle, WA 98122",12063255409,https://goo.gl/maps/2u35VVcoX3GW31757,47.6110688053949,-122.315175773803,Restaurant // Tap Room
Rhein Haus Tacoma,"649 Division Ave, Tacoma, WA 98403",12535724700,https://goo.gl/maps/FUZgC5ijN7FEnY2C9,47.2634809645087,-122.448627111346,Restaurant // Tap Room
Ridgecrest Pub,"520 NE 165th St, Shoreline, WA 98155",12068237792,https://goo.gl/maps/q3iDzwsEdAjtFvMH8,47.7488540040824,-122.322874197839,Restaurant // Tap Room
Skal Beer Hall,"5429 Ballard Ave NW, Seattle, WA 98107",12068299615,https://goo.gl/maps/rjYtCqm5jfeaQ8BKA,47.668157105748,-122.385004052363,Restaurant // Tap Room
Special Brews,"14608 Hwy 99, Lynnwood, WA 98087",14257417049,https://goo.gl/maps/cibctAQD6TYFRNxU8,47.8661455218797,-122.280774436466,Restaurant // Tap Room
Stone Way Cafe,"3510 Stone Way N, Seattle, WA 98103",12064204435,https://goo.gl/maps/zmGtWXiHE6nMHZ779,47.6500321029799,-122.341884244418,Restaurant // Tap Room
Sunset Alehouse,"20 Front St S, Issaquah, WA 98027",14253918395,https://g.page/sunsetalehouse?share,47.5300609297942,-122.03447232538,Restaurant // Tap Room
Super Deli,"9051 35th Ave SW, Seattle, WA 98126",12069371442,https://goo.gl/maps/vfnUbpFB2oSYDoBo6,47.5213858677102,-122.376729346271,Grocery Store
Josh's Taps and Caps,"1800 Bickford Ave #210, Snohomish, WA 98290",13602177221,https://goo.gl/maps/jTrnYH4ahxMJYDVu8,47.9330958154734,-122.102122033314,Restaurant // Tap Room
Teku Tavern,"552 Denny Way, Seattle, WA 98109",12064661764,https://g.page/TeKuTavern?share,47.6187396705312,-122.345815294144,Restaurant // Tap Room
The Bait Shop,"606 Broadway E, Seattle, WA 98102",12064208742,https://goo.gl/maps/8FH5c5epLbpTz4sa6,47.6246539588551,-122.320344565309,Restaurant // Tap Room
The Bine,"10127 Main St ste a, Bothell, WA 98011",14259087464,https://goo.gl/maps/f3qxTfg7GD3pukN8A,47.7600703900901,-122.203905536469,Restaurant // Tap Room
The Dane,"8000 15th Ave NW, Seattle, WA 98117",12062974441,https://goo.gl/maps/YCURbGfPvvtt23Rm6,47.687163827758,-122.3761788788,Restaurant // Tap Room
Growler Guys,"8500 Lake City Way NE, Seattle, WA 98115",12065222337,https://g.page/TheGrowlerGuysSeattleNE?share,47.6906953862995,-122.30637793702,Restaurant // Tap Room
The Maple,"8929 Roosevelt Way NE, Seattle, WA 98115",12064026135,https://goo.gl/maps/aPpisJ6Jd8LHRQvWA,47.6940269657766,-122.317198729074,Restaurant // Tap Room
The Red Hot,"2914 6th Ave, Tacoma, WA 98406",12537790229,https://goo.gl/maps/miMvxkDjR6MmTdBr5,47.2551823456266,-122.474353553675,Restaurant // Tap Room
The Shambles,"7777 15th Ave NE, Seattle, WA 98115",12066590074,https://goo.gl/maps/Rx9nZAyVzBD8dAX26,47.68649886924,-122.312095322978,Restaurant // Tap Room
Thirsty Hop,"13102 NE 70th Pl, Kirkland, WA 98033",14258968320,https://goo.gl/maps/HhwEz3togb2ZLxzU9,47.6674742571126,-122.16427689839,Restaurant // Tap Room
Toggles Bottles,"1420 Hewitt Ave, Everett, WA 98201",14253039999,https://goo.gl/maps/RoU7etgFLigcvyQb8,47.9791581981834,-122.209374877491,Restaurant // Tap Room
Tippe and Drague,"3315 Beacon Ave S, Seattle, WA 98144",12065380094,https://goo.gl/maps/wdDDeVEJYiE4xf2P6,47.573659598576,-122.308696894146,Restaurant // Tap Room
Watershed Pub and Kitchen,"10104 3rd Ave NE, Seattle, WA 98125",12067297433,https://g.page/Watershedpub?share,47.7020998271322,-122.325396526676,Restaurant // Tap Room
Witness,"410 Broadway E, Seattle, WA 98102",12063290248,https://goo.gl/maps/WN3scnbJNyxxy4bw5,47.622531926362,-122.320659870857,Restaurant // Tap Room
Zeeks Pizza,"6000 Phinney Ave N, Seattle, WA 98103",12062858646,https://g.page/zeeks-pizza-phinney?share,47.6727541432257,-122.353376329075,Restaurant // Tap Room
Zeeks Pizza,"7900 East Green Lake Dr N, Seattle, WA 98103",12062858646,https://g.page/zeekspizzagreenlake?share,47.6860527630626,-122.337134982499,Restaurant // Tap Room
Zeeks Pizza,"41 Dravus St, Seattle, WA 98109",12062858646,https://g.page/zeekspizzafremont?share,47.6484924403026,-122.35529419839,Restaurant // Tap Room
Zeeks Pizza,"1915 Queen Anne Ave N, Seattle, WA 98109",12062858646,https://g.page/zeekspizzaqueenanne?share,47.6366291087853,-122.357419103391,Restaurant // Tap Room
Zeeks Pizza,"2108 NE 65th St, Seattle, WA 98115",12062858646,https://g.page/zeekspizzaravenna?share,47.6759897428707,-122.304554511335,Restaurant // Tap Room
Zeeks Pizza,"419 Denny Way, Seattle, WA 98109",12063740775,https://g.page/zeekspizzaseattle?share,47.618573957961,-122.347712297843,Restaurant // Tap Room
Zeeks Pizza,"1830 E Mercer St, Seattle, WA 98112",12062858646,https://g.page/zeekspizzacapitolhill?share,47.6247156560313,-122.307659647569,Restaurant // Tap Room
Zeeks Pizza,"6459 California Ave SW, Seattle, WA 98136",12062858646,https://g.page/zeekspizzawestseattle?share,47.5451742309317,-122.387483374557,Restaurant // Tap Room
Zeeks Pizza,"124 Park Ln, Kirkland, WA 98033",14258938646,https://g.page/zeekspizzakirkland?share,47.676439829228,-122.205181484896,Restaurant // Tap Room
Zeeks Pizza,"10201 NE 10th St, Bellevue, WA 98004",14258938646,https://g.page/Zeeksbellevue?share,47.6191608248994,-122.204068442021,Restaurant // Tap Room
Zeeks Pizza,"18115 68th Ave NE suite 103, Kenmore, WA 98028",14258938646,https://g.page/zeeks-pizza-kenmore?share,47.7599473766704,-122.249806228524,Restaurant // Tap Room
Zeeks Pizza,"4309 196th St SW, Lynnwood, WA 98036",14258938646,https://g.page/ZeeksPizzaLynnwood?share,47.8214536478231,-122.291490645714,Restaurant // Tap Room
Zeeks Pizza,"1715 228th St SE, Bothell, WA 98021",14258938646,https://g.page/zeekspizzabothell?share,47.7918179901033,-122.211978959208,Restaurant // Tap Room
Zeeks Pizza,"17255 135th Ave NE Suite 1060, Woodinville, WA 98072",14258938646,https://g.page/zeeks-pizza-woodinville?share,47.7518694350008,-122.158535084894,Restaurant // Tap Room
Zeeks Pizza,"16015 Cleveland St suite 100, Redmond, WA 98052",14258938646,https://g.page/ZeeksPizzaRedmond?share,47.674755234592,-122.125739841267,Restaurant // Tap Room
Community Pint,"120 E Sprague Ave, Spokane, WA 99202",15096241631,https://goo.gl/maps/tFqZKHKSDXZFMSa59,47.6571899246552,-117.408310388596,Restaurant // Tap Room
Nectar Wine and Beer,"1331 W Summit Pkwy, Spokane, WA 99201",15092905239,https://goo.gl/maps/JQQN14r8V5o6CiJy6,47.6617822942327,-117.431645243869,Restaurant // Tap Room
Pints Alehouse,"10115 N Newport Hwy Suite A, Spokane, WA 99218",15093689671,https://goo.gl/maps/tcnmJChxsPaC42FR6,47.748820943029,-117.402976146264,Restaurant // Tap Room
Manito Tap House,"3011 S Grand Blvd, Spokane, WA 99203",15092792671,https://goo.gl/maps/HfrmN6KpBYg41fS58,47.6272190395984,-117.399917242569,Restaurant // Tap Room
The Backyard Pub,"1811 W Broadway Ave, Spokane, WA 99201",15098227338,https://goo.gl/maps/QBoaubJP33QByGyQA,47.6642981630616,-117.437978963458,Restaurant // Tap Room
Flying Goat,"3318 W Northwest Blvd, Spokane, WA 99205",15093278277,https://goo.gl/maps/MphyGVy1PaM3ZpCb9,47.6905488328624,-117.460003138321,Restaurant // Tap Room
Republic Pi,"611, Manito Shopping Center, E 30th Ave, Spokane, WA 99203",15098639196,https://goo.gl/maps/mJ3nCJ7NDKCyrT9w6,47.6276794084026,-117.401122715034,Restaurant // Tap Room
Flatstick,"618 W Main Ave, Spokane, WA 99201",15093689477,https://g.page/flatstick-pub-spokane?share,47.659516104307,-117.421865045718,Restaurant // Tap Room
Happy Trails to Brews,"9025 N Indian Trail Rd, Spokane, WA 99208",15098227037,https://g.page/HappyTrailsToBrews?share,47.7404053501281,-117.487584077498,Restaurant // Tap Room
Steady Flow,"328 N Sullivan Rd STE 8, Spokane Valley, WA 99037",15095988297,https://goo.gl/maps/M5ixmPPqAdWjoDnB6,47.6599961981882,-117.195127949965,Restaurant // Tap Room
Plaza Super Jet,"106 Okanogan Ave, Wenatchee, WA 98801",15096625410,https://goo.gl/maps/LPda3rYjMTAncj748,47.4210209040247,-120.313456564013,Grocery Store
Wally's Tavern,"322 S Wenatchee Ave, Wenatchee, WA 98801",15096631433,https://goo.gl/maps/RBo81KXuhnG8qnUr5,47.420057287861,-120.307928826684,Restaurant // Tap Room
Beer Wine and More,"116 N Chelan Ave, Wenatchee, WA 98801",15098880789,https://goo.gl/maps/qYs18nSjaWnVBvZW6,47.4255633022504,-120.315515716889,Grocery Store
Big Rock,"1201 N Miller St, Wenatchee, WA 98801",15096638411,https://goo.gl/maps/2P6kMuEahTWsWtky7,47.4397993680704,-120.324110034629,Grocery Store
McGlinn's Bottle House,"111 Orondo Ave, Wenatchee, WA 98801",15096639073,https://g.page/mcglinns?share,47.4230841343387,-120.310900899698,Restaurant // Tap Room
New Moon Natural Foods,"11357 Donner Pass Rd., Truckee, CA 96161",15305877426,https://goo.gl/maps/QBYbaHdEwaZEar2y7,39.3257962634205,-120.209438532441,Grocery Store
Other Avenues Food Store,"3930 Judah Street, San Francisco, CA 94122",14156617475,https://goo.gl/maps/wMVyc4McjAsYyg4X6,37.7608118006961,-122.504229355765,Grocery Store
Oceana Market,"200 Eureka Dr., Pacifica, CA 94044",16503598181,https://goo.gl/maps/FWSwKDrySCV3pdUWA,37.6332083733018,-122.487968215289,Grocery Store
Bar and Garden,"6142 Washington Blvd., Culver City, CA 90232",13108760759,https://goo.gl/maps/f2UwYjQc5GjpWG777,34.0309926511386,-118.378920046053,Grocery Store
Sacramento Natural Foods Co-op,"2820 R St, Sacramento, CA 95816",19164552667,https://g.page/sacfoodcoop?share,38.5646837579021,-121.472505899925,Grocery Store
Animal,"435 N Fairfax Ave, Los Angeles, CA 90036",13237829225,https://goo.gl/maps/TdF452QDAuyin4oB7,34.0793326435704,-118.361467565641,Restaurant // Tap Room
Crooked Wine Company,"255 Bell St #101, Reno, NV 89503",17753423879,https://goo.gl/maps/WWcpLNmQaP4ctFCQ7,39.4812600690609,-119.812390577163,Grocery Store
Nopa Corner Market,"1601 Fulton St, San Francisco, CA 94117",14159312060,https://g.page/nopamarket?share,37.7762355022363,-122.443345617135,Grocery Store
Imbibe Wine and Spirits,"4140 Truxton Avenue, Bakersfield, CA 93309",16616339463,https://goo.gl/maps/8jCPSFpRf4BAG54Q7,35.3734629454553,-119.046439938627,Grocery Store
La Copine,"848 Old Woman Springs Rd, Yucca Valley, CA 92284",17602898537,https://g.page/lacopinekitchen?share,34.2384814936268,-116.439543890775,Restaurant // Tap Room
Beer Thirty,"2504 S Main St, Soquel, CA 95073",18314779967,https://goo.gl/maps/M1ch1ZZL8Rctx8SX8,36.9840236929745,-121.956355886468,Restaurant // Tap Room
Gus's Community Market,"1101 4th St., San Francisco, CA 94158",14159438464,https://goo.gl/maps/P18TKeYuZP6upbnK9,37.7744433266797,-122.391214782751,Grocery Store
Good Clean Fun,"868 S Olive St, Los Angeles, CA 90014",13236003016,https://g.page/good-clean-fun-los-angeles?share,34.0441011305876,-118.25749250982,Restaurant // Tap Room
The Duck Blind,"1102 Montana Ave, Santa Monica, CA 90403",13103946705,https://g.page/the-duck-blind-santa-monica?share,34.0299820271757,-118.497169033108,Grocery Store
Windy City Market,"701 Broadway, El Cajon, CA 92021",16195888404,https://goo.gl/maps/oQz9zs9gmmqQ16bd9,32.8075668967136,-116.953509446531,Grocery Store
JOHNS MARKET,3535 SW MULTNOMAH PORTLAND OR 97219,15032442617,https://goo.gl/maps/M2Bvc3GNzbBcoYxGA,45.4676188803606,-122.712531627286,Grocery Store
MARKET OF CHOICE,W 5639 HOOD ST WEST LINN OR 97068,15035942901,https://goo.gl/maps/w16knU5DyyKgnpM47,45.3669205103738,-122.611516359822,Grocery Store
N.W.I.P.A.,6350 SE FOSTER RD PORTLAND OR 97206,15038057342,https://goo.gl/maps/iHZhySoJowmX38rC9,45.489727113598,-122.59667671749,Grocery Store
NATURAL GROCERS,N 137 S HWY 101 WARRENTON OR 97146,15038615646,https://goo.gl/maps/ZVswN6ZTXMygdAHk7,46.1621903752268,-123.899048892335,Grocery Store
NATURAL GROCERS,407 NW BURNSIDE ROAD GRESHAM OR 97030,15034650130,https://goo.gl/maps/fEGLKyTJ6FtHS13t8,45.5107729567368,-122.43471026112,Grocery Store
NATURE MART,1726 SW 4TH AVE PORTLAND OR 97201,15034776627,https://goo.gl/maps/V2VHEYe5xAREK9KP8,45.5116815046061,-122.680006224887,Grocery Store
NEW SEASONS,1453 NE 61ST AVENUE HILLSBORO OR 97124,15036486968,https://g.page/new-seasons-market-orencostation?share,45.5344460014322,-122.918077945024,Grocery Store
NEW SEASONS,5320 NE 33RD PORTLAND OR 97211,15032883838,https://g.page/new-seasons-market-concordia?share,45.5613466906345,-122.630255461118,Grocery Store
NEW SEASONS,3495 SW CEDAR HILLS BLVD BEAVERTON OR 97005,15036414181,https://g.page/new-seasons-market-cedarhills?share,45.494391665347,-122.812675255572,Grocery Store
NEW SEASONS,4034 SE HAWTHORNE BLVD PORTLAND OR 97214,15032364800,https://g.page/new-seasons-market-hawthorne?share,45.5120127827338,-122.620178188654,Grocery Store
SHERWOOD GROWLER HOUSE ,21319 SW SHERWOOD BLVD SHERWOOD OR 97140,15034652337,https://goo.gl/maps/mzk8UyvWJErD3j6ZA,45.3660286572791,-122.848157097905,Restaurant // Tap Room
WHOLE FOODS,1210 NW COUCH PORTLAND OR 97209,15035254343,https://goo.gl/maps/T2g3mrUozEwDnxb66,45.5234606640333,-122.683330621188,Grocery Store
WHOLE FOODS,4301 NE SANDY BLVD PORTLAND OR 97213,15032842644,https://goo.gl/maps/8nBYEyQRRE56F1Nw5,45.5369855342324,-122.618777745777,Grocery Store
WHOLE FOODS,7380 SW BRIDGEPORT RD TIGARD OR 97224,15036396500,https://goo.gl/maps/fnRuVG2S2MDoBkjf6,45.3945916893017,-122.750728125438,Grocery Store
WHOLE FOODS,3535 NE 15TH AVE R PORTLAND OR 97212,15032883414,https://goo.gl/maps/Hos5gHMKa3ymGo7Y6,45.5490470811648,-122.651138543927,Grocery Store
WORLD FOODS,830 NW EVERETT AVE PORTLAND OR 97209,15038020755,https://g.page/worldfoodspdx?share,45.5251145364453,-122.678260095038,Grocery Store
WINE HAUS DELI & PUB,1111 N ROOSEVELT DR #350 SEASIDE OR 97138,15037380201,https://goo.gl/maps/JtqPrNFmAJF4rn547,45.9999932137018,-123.915953521723,Restaurant // Tap Room
BELMONT STATION,4500 SE STARK PORTLAND OR 97214,15032328538,https://g.page/BelmontStationPDX?share,45.5191764703296,-122.615358057969,Restaurant // Tap Room
BRIDGE & TUNNEL,1390 DUANE ST ASTORIA OR 97103,13602445165,https://goo.gl/maps/ZXaAcsqRiHuiGLPd7,46.1887200710448,-123.828603909526,Restaurant // Tap Room
CHEAP CHARLIES,67 NE ROBERTS AVE GRESHAM OR 97030,15035454301,https://goo.gl/maps/39Kvz6f238ZmaGPD7,45.4984531395471,-122.429057281257,Grocery Store
HOLLYWOOD LIQUOR STORE,3028 NE SANDY BLVD PORTLAND OR 97232,15032840987,https://g.page/Hollywood-Beverage-portland?share,45.5304237632262,-122.632952688654,Grocery Store
HOP HAVEN,2130 NE BROADWAY PORTLAND OR 97232,15032870244,https://goo.gl/maps/U33MUtp7nRy3RG2ZA,45.5349836776535,-122.643794967215,Restaurant // Tap Room
IMPERIAL BOTTLE SHOP,3090 SE DIVISION ST PORTLAND OR 97202,19713026899,https://goo.gl/maps/VwJwQPCvspdQhJTp9,45.5047649721918,-122.633410136531,Grocery Store
JOHNS MARKET POWELL,3560 SE POWELL BLVD PORTLAND OR 97202,15032065273,https://goo.gl/maps/D8jsXKHAuuqVDfqSA,45.4965062628053,-122.6270271016,Grocery Store
LIFE SOURCE NATURAL FOODS,2649 COMERCIAL ST. S.E. SALEM OR 97301,15033617973,https://g.page/LifeSourceNaturalFoods?share,44.9156869430329,-123.045516678875,Grocery Store
THE WHET SPOT,12 N HOLIDAY SEASIDE OR 97138,15037397440,https://goo.gl/maps/fLcvKxpYm63BN5vn6,45.9935707703291,-123.923032380696,Restaurant // Tap Room
UPTOWN MARKET,6620 SW SCHOLLS FERRY R PORTLAND OR 97223,15033364783,https://goo.gl/maps/rRs4FhgKRCYJjnfZA,45.4723791627161,-122.772297551874,Grocery Store
VOLCANIC BOTTLE SHOPPE,1410 12TH ST HOOD RIVER OR 97031,15414361226,https://goo.gl/maps/THacYjjnz8imX3Pg6,45.6999368838825,-121.523426950019,Restaurant // Tap Room
SARAVEZA,1004 N KILLINGSWORTH PORTLAND OR 97217,15032064252,https://goo.gl/maps/fyA5vwz6bxFCnTkE9,45.5625389949859,-122.676561500297,Restaurant // Tap Room
THE BEER MONGERS,1125 SE DIVISION PORTLAND OR 97202,15032346012,https://goo.gl/maps/XzNHQ84KEoX553ua6,45.5051955293909,-122.653481913791,Restaurant // Tap Room
THE BITTER MONK,250 NE 3RD ST MCMINNVILLE OR 97128,15033799559,https://goo.gl/maps/eandLe1STEb1yoEk8,45.2100600920716,-123.196707496059,Restaurant // Tap Room
